ONEWEB-0098             
1 45442U 20020U   24307.43472557  .00000201  00000+0  53204-3 0  9995
2 45442  87.8890 138.9536 0001511  73.9846 286.1448 13.11418362225081
ONEWEB-0055             
1 45443U 20020V   24307.57289403 -.00000336  00000+0 -98262-3 0  9991
2 45443  87.8896 138.9294 0001587  82.3523 277.7785 13.11417692225072
ONEWEB-0093             
1 45444U 20020W   24307.54832082  .00000033  00000+0  57842-4 0  9998
2 45444  87.8890 138.9162 0001751  82.3006 277.8321 13.11415707225139
ONEWEB-0029             
1 45445U 20020X   24307.56696254 -.00000410  00000+0 -11925-2 0  9991
2 45445  87.8894 138.9262 0001696  91.0369 269.0953 13.11418990225111
ONEWEB-0068             
1 45446U 20020Y   24307.54237648  .00000277  00000+0  74696-3 0  9992
2 45446  87.8889 138.9165 0001672  87.0477 273.0842 13.11414249225055
ONEWEB-0046             
1 45447U 20020Z   24307.53984786  .00000437  00000+0  11961-2 0  9997
2 45447  87.8891 138.9289 0001466  96.4254 263.7041 13.11416472225062
ONEWEB-0063             
1 45448U 20020AA  24307.49236459 -.00000445  00000+0 -12921-2 0  9998
2 45448  87.8893 138.9385 0001313  93.1225 267.0053 13.11417470225143
ONEWEB-0019             
1 45449U 20020AB  24307.54323737  .00000226  00000+0  60214-3 0  9995
2 45449  87.8892 138.9368 0001414  78.8287 281.3000 13.11415486224992
